MACSAT 2 (M 2)          
1 20608U 90043B   11156.97039169  .00000320  00000-0  45051-4 0  3437
2 20608  89.7402  58.5219 0091364 245.4872 113.6801 14.72242947129096
TUBSAT A                
1 21577U 91050D   11157.01637873  .00000072  00000-0  37977-4 0   859
2 21577  98.5590 107.9654 0007225  64.8897 295.3038 14.38622007 43550
S80/T                   
1 22078U 92052C   11156.76659345 -.00000037  00000-0  10000-3 0   206
2 22078  66.0875 254.4649 0015418 293.2767  66.6636 12.86738110884192
HEALTHSAT 1             
1 22827U 93061E   11157.85906227  .00000128  00000-0  66088-4 0  8536
2 22827  98.5221 104.6503 0007983 275.0490  84.9771 14.30278175923090
TUBSAT B                
1 22970U 94003B   11157.08559824  .00000051  00000-0  10000-3 0  6236
2 22970  82.5613   2.2687 0014778 249.7147 110.2363 13.16920524834603
CERISE                  
1 23606U 95033B   11157.58133816  .00000672  00000-0  84429-4 0  4381
2 23606  98.3324 316.9035 0005237 304.5121  55.5597 14.85644707858641
UPM/LBSAT               
1 23607U 95033C   11157.43677253  .00000135  00000-0  27846-4 0  6874
2 23607  98.1792 260.5697 0007097 115.2745 244.9192 14.75021380855065
FAISAT 2V               
1 24954U 97052B   11157.55006371  .00000050  00000-0  33531-4 0  1647
2 24954  82.9220 136.8038 0037806 269.5820  90.1006 13.79694137689867
MUBLCOM                 
1 25736U 99026B   11157.56323013  .00000417  00000-0  13037-3 0  3394
2 25736  97.7344  36.9214 0006246  16.5870 343.5528 14.44951632634663
RUBIN-3 & SL-8 R/B      
1 27561U 02054C   11157.08151851  .00000116  00000-0  37522-4 0  3025
2 27561  97.9595 325.8271 0047559 165.2632 194.9965 14.53914833451969
APRIZESAT 2             
1 28366U 04025A   11157.48721927  .00000073  00000-0  37305-4 0  9241
2 28366  98.1681 122.9184 0109287 165.3744 195.0655 14.35678807363433
SAUDICOMSAT 1           
1 28369U 04025D   11157.04220920  .00000079  00000-0  30689-4 0  9663
2 28369  97.9567 168.7943 0034374 352.7922   7.2787 14.50781547367179
SAUDICOMSAT 2           
1 28370U 04025E   11157.02292933  .00000053  00000-0  26094-4 0  9720
2 28370  98.0183 151.3107 0060043  44.2152 316.3825 14.45874080365935
APRIZESAT 1             
1 28372U 04025G   11156.99071053  .00000024  00000-0  17615-4 0  9575
2 28372  97.9833 159.1326 0047972  18.1058 342.1826 14.48285384366538
NANOSAT-1               
1 28493U 04049B   11157.18271055  .00000204  00000-0  42175-4 0  9491
2 28493  98.3551 142.4249 0005437 132.0277 228.1394 14.70617424346824
SAUDICOMSAT 7           
1 31119U 07012C   11157.87353246  .00000388  00000-0  88724-4 0  2511
2 31119  97.8911 199.9319 0062393 158.9940 201.3832 14.59629815220476
SAUDICOMSAT 6           
1 31121U 07012E   11157.12986094  .00000367  00000-0  89075-4 0  2501
2 31121  97.8891 191.6202 0078685 184.0237 176.0316 14.56490010219907
SAUDICOMSAT 5           
1 31124U 07012H   11157.88179068  .00000402  00000-0  89121-4 0  2627
2 31124  97.8946 204.1580 0053981 147.8107 212.6386 14.61224717220715
SAUDICOMSAT 3           
1 31125U 07012J   11157.17702676  .00000413  00000-0  88749-4 0  2703
2 31125  97.8992 207.4636 0045840 139.6118 220.8502 14.62759968220848
SAUDICOMSAT 4           
1 31127U 07012L   11157.07385170  .00000382  00000-0  89803-4 0  2617
2 31127  97.8898 195.6031 0070327 172.3764 187.8512 14.58149704220132
APRIZESAT 4             
1 35684U 09041D   11157.41183655  .00000200  00000-0  36120-4 0  5880
2 35684  98.0792  63.5922 0049772 348.6506  11.3536 14.76239302 99825
APRIZESAT 3             
1 35686U 09041F   11157.21452582  .00000553  00000-0  72002-4 0  5877
2 35686  98.0902  70.6035 0079069 331.7524  27.9413 14.82806458100233
AISSAT 1                
1 36797U 10035C   11157.78905148  .00000533  00000-0  76238-4 0  9337
2 36797  98.1024 226.1235 0011774 321.1481  38.8882 14.80787645 48772
